COSMOS 2425 (716)       
1 29670U 06062A   18064.34371505 -.00000016  00000-0  10000-3 0  9997
2 29670  65.3304 296.0476 0022684 349.0312 336.9678  2.13104932 87096
COSMOS 2426 (717)       
1 29671U 06062B   18063.62962578 -.00000012  00000-0  10000-3 0  9990
2 29671  65.3480 296.1676 0016309 160.4062 194.2664  2.13103081 87082
COSMOS 2433 (720)       
1 32275U 07052A   18064.11890876 -.00000027  00000-0  10000-3 0  9996
2 32275  65.6398  56.8541 0005269 278.0212  67.1858  2.13104709 80607
COSMOS 2432 (719)       
1 32276U 07052B   18064.12493537 -.00000027  00000-0  10000-3 0  9991
2 32276  65.6518  56.9289 0013575 327.0109 334.9943  2.13103695 80604
COSMOS 2434 (721)       
1 32393U 07065A   18064.04778118 -.00000014  00000-0  00000+0 0  9998
2 32393  64.9461 295.0820 0004584  87.6778  91.3329  2.13102927 79316
COSMOS 2436 (723)       
1 32395U 07065C   18064.38336978 -.00000015  00000-0  10000-3 0  9997
2 32395  64.9538 295.1215 0016818   3.4571 122.9834  2.13104208 79251
COSMOS 2456 (730)       
1 36111U 09070A   18063.74098391  .00000011  00000-0  00000+0 0  9998
2 36111  64.1839 174.6700 0003659 328.4430 147.1782  2.13102834 63976
COSMOS 2457 (733)       
1 36112U 09070B   18063.55566935  .00000011  00000-0  00000-0 0  9993
2 36112  64.1656 174.5899 0006333 159.0034 301.8353  2.13101528 63974
COSMOS 2458 (734)       
1 36113U 09070C   18063.91252797  .00000011  00000-0  10000-3 0  9996
2 36113  64.1714 174.5872 0002024  36.5826  26.2970  2.13102120 63985
COSMOS 2459 (731)       
1 36400U 10007A   18063.66748964 -.00000028  00000-0  10000-3 0  9994
2 36400  65.5490  55.9432 0028516 346.9603 231.7139  2.13102263 62324
COSMOS 2461 (735)       
1 36401U 10007B   18063.77415909 -.00000028  00000-0  10000-3 0  9997
2 36401  65.5415  55.9145 0005192  43.0411 168.0553  2.13102225 62320
COSMOS 2460 (732)       
1 36402U 10007C   18063.73366236 -.00000028  00000-0  10000-3 0  9992
2 36402  65.5315  55.8859 0002811 297.2101 283.6694  2.13101718 62321
COSMOS 2464 (736)       
1 37139U 10041C   18063.73302824 -.00000013  00000-0  00000+0 0  9990
2 37139  64.5497 294.9488 0025365  13.5940 151.7264  2.13102729 58395
COSMOS 2471 (701K)      
1 37372U 11009A   18063.74735831 -.00000028  00000-0  00000+0 0  9999
2 37372  65.5303  55.8312 0009477 243.9384 129.1815  2.13107696 54607
COSMOS 2474 (742)       
1 37829U 11055A   18064.03791347  .00000012  00000-0  00000+0 0  9996
2 37829  64.5078 175.3341 0007523 244.8068 317.2258  2.13101865 49978
COSMOS 2476 (744)       
1 37867U 11064A   18064.14622361  .00000012  00000-0  00000+0 0  9999
2 37867  64.4880 175.3951 0017215 240.3344  90.7987  2.13101955 49325
COSMOS 2477 (745)       
1 37868U 11064B   18063.61786127  .00000011  00000-0  00000+0 0  9991
2 37868  64.4959 175.4599 0014818 241.3168 223.4531  2.13101721 49278
COSMOS 2475 (743)       
1 37869U 11064C   18063.50530517  .00000011  00000-0  00000-0 0  9991
2 37869  64.5032 175.4576 0019235 268.8414  66.2097  2.13101872 49270
COSMOS 2485 (747)       
1 39155U 13019A   18063.74929488  .00000012  00000-0  00000-0 0  9999
2 39155  64.6572 175.4948 0017580 234.9621 196.5924  2.13101907 37797
COSMOS 2492 (754)       
1 39620U 14012A   18063.69705527 -.00000029  00000-0  10000-3 0  9993
2 39620  65.4202  55.7868 0016863 324.0951 102.0059  2.13103470 30740
COSMOS 2500 (755)       
1 40001U 14032A   18064.22597887 -.00000028  00000-0  00000+0 0  9992
2 40001  65.3619  55.7466 0006732 231.6663 102.6822  2.13102803 28961
COSMOS 2501 (702K)      
1 40315U 14075A   18064.10769936 -.00000017  00000-0  00000+0 0  9998
2 40315  64.2755 296.1868 0014083 206.7488 199.6758  2.13098236 25371
COSMOS 2514 (751)       
1 41330U 16008A   18063.72914756 -.00000029  00000-0  00000-0 0  9997
2 41330  65.1637  55.8428 0010315 232.1240 261.7327  2.13103355 16128
COSMOS 2516 (753)       
1 41554U 16032A   18063.90828712 -.00000015  00000-0  00000-0 0  9993
2 41554  64.4967 296.0292 0010138 221.5505 301.1894  2.13101668 13738
COSMOS 2522 (752)       
1 42939U 17055A   18064.54225237 -.00000017  00000-0  00000+0 0  9992
2 42939  64.7243 295.9442 0005856 259.7446 255.7594  2.13101961  3500
